IRIDIUM 57 [-]          
1 25273U 98019B   24006.89892839  .00000370  00000+0  12301-3 0  9993
2 25273  86.3963   6.0723 0002237  89.5053 270.6400 14.35036265349143
IRIDIUM 63 [-]          
1 25286U 98021B   24006.91288846  .00000452  00000+0  15008-3 0  9998
2 25286  86.3992 303.0018 0002195  91.5563 268.5885 14.35554622348445
IRIDIUM 69 [-]          
1 25319U 98026A   24006.89898729  .00000490  00000+0  15022-3 0  9992
2 25319  86.3996 317.8726 0002046  24.0349 336.0945 14.39734166347403
IRIDIUM 71 [-]          
1 25320U 98026B   24006.93522810  .00000467  00000+0  14177-3 0  9998
2 25320  86.3987 312.6603 0003770  57.5077 302.6486 14.40061987347681
IRIDIUM 82 [-]          
1 25467U 98051A   24006.93551245  .00007578  00000+0  42081-3 0  9997
2 25467  86.3969   2.2932 0143713  94.0252 267.7425 15.05016024344048
IRIDIUM 2 [-]           
1 25527U 98066A   24006.62258055  .00035269  00000+0  62729-3 0  9998
2 25527  85.5155  46.7956 0003068 180.2592 179.8665 15.49998590382502
